{
  "type": "FeatureCollection",
  "features": [
    {
      "type": "Feature",
      "properties": {
        "norad_id": 29790,
        "name": "FENGYUN 1C DEB",
        "group": "fengyun-1c-debris",
        "lat": 9.22838809673028,
        "lon": -9.697738059014306,
        "alt_km": 825.7048041238932,
        "timestamp": "2025-12-23T05:02:12.301919+00:00",
        "meta_object_name": "FENGYUN 1C DEB",
        "meta_object_id": "1999-025CG",
        "meta_epoch": "2025-12-22T22:17:10.694400",
        "meta_mean_motion": 14.32284179,
        "meta_eccentricity": 0.00769475,
        "meta_inclination": 99.1477,
        "meta_ra_of_asc_node": 351.5059,
        "meta_arg_of_pericenter": 147.047,
        "meta_mean_anomaly": 213.5542,
        "meta_ephemeris_type": 0,
        "meta_classification_type": "U",
        "meta_norad_cat_id": 29790,
        "meta_element_set_no": 999,
        "meta_rev_at_epoch": 98671,
        "meta_bstar": 0.00025494294,
        "meta_mean_motion_dot": 6.63e-06,
        "meta_mean_motion_ddot": 0,
        "tle_line1": "1 29790U 99025CG  25356.92859600  .00000663  00000+0  25494-3 0  9993",
        "tle_line2": "2 29790  99.1477 351.5059 0076947 147.0470 213.5542 14.32284179986714"
      },
      "geometry": {
        "type": "Point",
        "coordinates": [
          -9.697738059014306,
          9.22838809673028
        ]
      }
    },
    {
      "type": "Feature",
      "properties": {
        "norad_id": 29791,
        "name": "FENGYUN 1C DEB",
        "group": "fengyun-1c-debris",
        "lat": -20.075533435354995,
        "lon": 175.3215775810833,
        "alt_km": 732.2647131384256,
        "timestamp": "2025-12-23T05:02:12.301929+00:00",
        "meta_object_name": "FENGYUN 1C DEB",
        "meta_object_id": "1999-025CH",
        "meta_epoch": "2025-12-22T12:12:48.625632",
        "meta_mean_motion": 14.58373383,
        "meta_eccentricity": 0.00412668,
        "meta_inclination": 99.0363,
        "meta_ra_of_asc_node": 357.8944,
        "meta_arg_of_pericenter": 32.8926,
        "meta_mean_anomaly": 89.1728,
        "meta_ephemeris_type": 0,
        "meta_classification_type": "U",
        "meta_norad_cat_id": 29791,
        "meta_element_set_no": 999,
        "meta_rev_at_epoch": 98988,
        "meta_bstar": 0.0016071443,
        "meta_mean_motion_dot": 7.483e-05,
        "meta_mean_motion_ddot": 0,
        "tle_line1": "1 29791U 99025CH  25356.50889613  .00007483  00000+0  16071-2 0  9992",
        "tle_line2": "2 29791  99.0363 357.8944 0041266  32.8926  89.1728 14.58373383989881"
      },
      "geometry": {
        "type": "Point",
        "coordinates": [
          175.3215775810833,
          -20.075533435354995
        ]
      }
    },
    {
      "type": "Feature",
      "properties": {
        "norad_id": 29792,
        "name": "FENGYUN 1C DEB",
        "group": "fengyun-1c-debris",
        "lat": 35.90458602097543,
        "lon": 41.17580814025385,
        "alt_km": 809.4623862970338,
        "timestamp": "2025-12-23T05:02:12.301940+00:00",
        "meta_object_name": "FENGYUN 1C DEB",
        "meta_object_id": "1999-025CJ",
        "meta_epoch": "2025-12-22T01:43:04.391040",
        "meta_mean_motion": 14.15198396,
        "meta_eccentricity": 0.00475701,
        "meta_inclination": 98.7564,
        "meta_ra_of_asc_node": 46.4654,
        "meta_arg_of_pericenter": 9.1941,
        "meta_mean_anomaly": 351.0093,
        "meta_ephemeris_type": 0,
        "meta_classification_type": "U",
        "meta_norad_cat_id": 29792,
        "meta_element_set_no": 999,
        "meta_rev_at_epoch": 97071,
        "meta_bstar": 0.0013283506,
        "meta_mean_motion_dot": 2.566e-05,
        "meta_mean_motion_ddot": 0,
        "tle_line1": "1 29792U 99025CJ  25356.07157860  .00002566  00000+0  13284-2 0  9997",
        "tle_line2": "2 29792  98.7564  46.4654 0047570   9.1941 351.0093 14.15198396970718"
      },
      "geometry": {
        "type": "Point",
        "coordinates": [
          41.17580814025385,
          35.90458602097543
        ]
      }
    },
    {
      "type": "Feature",
      "properties": {
        "norad_id": 29793,
        "name": "FENGYUN 1C DEB",
        "group": "fengyun-1c-debris",
        "lat": -23.214964123209594,
        "lon": -8.507400000676034,
        "alt_km": 921.1312923028081,
        "timestamp": "2025-12-23T05:02:12.301950+00:00",
        "meta_object_name": "FENGYUN 1C DEB",
        "meta_object_id": "1999-025CK",
        "meta_epoch": "2025-12-22T11:10:39.244800",
        "meta_mean_motion": 14.01106238,
        "meta_eccentricity": 0.01435708,
        "meta_inclination": 98.3539,
        "meta_ra_of_asc_node": 174.4247,
        "meta_arg_of_pericenter": 310.57,
        "meta_mean_anomaly": 103.0957,
        "meta_ephemeris_type": 0,
        "meta_classification_type": "U",
        "meta_norad_cat_id": 29793,
        "meta_element_set_no": 999,
        "meta_rev_at_epoch": 96285,
        "meta_bstar": 0.00088687558,
        "meta_mean_motion_dot": 1.416e-05,
        "meta_mean_motion_ddot": 0,
        "tle_line1": "1 29793U 99025CK  25356.46573200  .00001416  00000+0  88688-3 0  9995",
        "tle_line2": "2 29793  98.3539 174.4247 0143570 310.5700 103.0957 14.01106238962855"
      },
      "geometry": {
        "type": "Point",
        "coordinates": [
          -8.507400000676034,
          -23.214964123209594
        ]
      }
    },
    {
      "type": "Feature",
      "properties": {
        "norad_id": 29794,
        "name": "FENGYUN 1C DEB",
        "group": "fengyun-1c-debris",
        "lat": 80.99350852290613,
        "lon": 40.3802582870455,
        "alt_km": 840.2692387095058,
        "timestamp": "2025-12-23T05:02:12.301960+00:00",
        "meta_object_name": "FENGYUN 1C DEB",
        "meta_object_id": "1999-025CL",
        "meta_epoch": "2025-12-22T09:59:12.806016",
        "meta_mean_motion": 14.09015877,
        "meta_eccentricity": 0.01566943,
        "meta_inclination": 98.1999,
        "meta_ra_of_asc_node": 154.1906,
        "meta_arg_of_pericenter": 12.7188,
        "meta_mean_anomaly": 15.2646,
        "meta_ephemeris_type": 0,
        "meta_classification_type": "U",
        "meta_norad_cat_id": 29794,
        "meta_element_set_no": 999,
        "meta_rev_at_epoch": 96984,
        "meta_bstar": 0.00044405139,
        "meta_mean_motion_dot": 8.23e-06,
        "meta_mean_motion_ddot": 0,
        "tle_line1": "1 29794U 99025CL  25356.41612044  .00000823  00000+0  44405-3 0  9991",
        "tle_line2": "2 29794  98.1999 154.1906 0156694  12.7188  15.2646 14.09015877969844"
      },
      "geometry": {
        "type": "Point",
        "coordinates": [
          40.3802582870455,
          80.99350852290613
        ]
      }
    },
    {
      "type": "Feature",
      "properties": {
        "norad_id": 29795,
        "name": "FENGYUN 1C DEB",
        "group": "fengyun-1c-debris",
        "lat": -58.44044191683419,
        "lon": 140.87845037583702,
        "alt_km": 876.3152261098267,
        "timestamp": "2025-12-23T05:02:12.301988+00:00",
        "meta_object_name": "FENGYUN 1C DEB",
        "meta_object_id": "1999-025CM",
        "meta_epoch": "2025-12-22T19:44:00.756672",
        "meta_mean_motion": 13.92914072,
        "meta_eccentricity": 0.01111823,
        "meta_inclination": 98.8708,
        "meta_ra_of_asc_node": 125.7776,
        "meta_arg_of_pericenter": 248.3389,
        "meta_mean_anomaly": 268.3974,
        "meta_ephemeris_type": 0,
        "meta_classification_type": "U",
        "meta_norad_cat_id": 29795,
        "meta_element_set_no": 999,
        "meta_rev_at_epoch": 96205,
        "meta_bstar": 0.00024811306,
        "meta_mean_motion_dot": 2.96e-06,
        "meta_mean_motion_ddot": 0,
        "tle_line1": "1 29795U 99025CM  25356.82223098  .00000296  00000+0  24811-3 0  9997",
        "tle_line2": "2 29795  98.8708 125.7776 0111182 248.3389 268.3974 13.92914072962059"
      },
      "geometry": {
        "type": "Point",
        "coordinates": [
          140.87845037583702,
          -58.44044191683419
        ]
      }
    },
    {
      "type": "Feature",
      "properties": {
        "norad_id": 29796,
        "name": "FENGYUN 1C DEB",
        "group": "fengyun-1c-debris",
        "lat": -63.38115282082227,
        "lon": 67.10878834377932,
        "alt_km": 837.8691651369363,
        "timestamp": "2025-12-23T05:02:12.302000+00:00",
        "meta_object_name": "FENGYUN 1C DEB",
        "meta_object_id": "1999-025CN",
        "meta_epoch": "2025-12-22T02:13:57.304704",
        "meta_mean_motion": 14.12357767,
        "meta_eccentricity": 0.00522978,
        "meta_inclination": 98.8638,
        "meta_ra_of_asc_node": 47.863,
        "meta_arg_of_pericenter": 241.1659,
        "meta_mean_anomaly": 138.1824,
        "meta_ephemeris_type": 0,
        "meta_classification_type": "U",
        "meta_norad_cat_id": 29796,
        "meta_element_set_no": 999,
        "meta_rev_at_epoch": 97193,
        "meta_bstar": 0.00059657026,
        "meta_mean_motion_dot": 1.069e-05,
        "meta_mean_motion_ddot": 0,
        "tle_line1": "1 29796U 99025CN  25356.09302436  .00001069  00000+0  59657-3 0  9996",
        "tle_line2": "2 29796  98.8638  47.8630 0052297 241.1659 138.1824 14.12357767971937"
      },
      "geometry": {
        "type": "Point",
        "coordinates": [
          67.10878834377932,
          -63.38115282082227
        ]
      }
    }
  ]
}